CCSDS_OMM_VERS = 2.0
CREATION_DATE  = 
ORIGINATOR     = 

OBJECT_NAME    = SL-14 R/B
OBJECT_ID      = 1986-046B
CENTER_NAME    = EARTH
REF_FRAME      = TEME
TIME_SYSTEM    = UTC
MEAN_ELEMENT_THEORY = SGP/SGP4

EPOCH          = 2026-02-20T15:09:38.943072
MEAN_MOTION    = 14.85572516
ECCENTRICITY   = .0021582
INCLINATION    = 82.4796
RA_OF_ASC_NODE = 96.3038
ARG_OF_PERICENTER = 285.2717
MEAN_ANOMALY   = 74.6113

EPHEMERIS_TYPE = 0
CLASSIFICATION_TYPE = U
NORAD_CAT_ID   = 16792
ELEMENT_SET_NO = 999
REV_AT_EPOCH   = 12387
BSTAR          = .40313E-4
MEAN_MOTION_DOT = .374E-5
MEAN_MOTION_DDOT = 0

CCSDS_OMM_VERS = 2.0
CREATION_DATE  = 
ORIGINATOR     = 

OBJECT_NAME    = SL-14 R/B
OBJECT_ID      = 1986-055B
CENTER_NAME    = EARTH
REF_FRAME      = TEME
TIME_SYSTEM    = UTC
MEAN_ELEMENT_THEORY = SGP/SGP4

EPOCH          = 2026-02-20T16:54:50.114016
MEAN_MOTION    = 14.85624629
ECCENTRICITY   = .0019638
INCLINATION    = 82.5230
RA_OF_ASC_NODE = 142.6353
ARG_OF_PERICENTER = 32.4561
MEAN_ANOMALY   = 79.7051

EPHEMERIS_TYPE = 0
CLASSIFICATION_TYPE = U
NORAD_CAT_ID   = 16882
ELEMENT_SET_NO = 999
REV_AT_EPOCH   = 11684
BSTAR          = .48449E-4
MEAN_MOTION_DOT = .445E-5
MEAN_MOTION_DDOT = 0

CCSDS_OMM_VERS = 2.0
CREATION_DATE  = 
ORIGINATOR     = 

OBJECT_NAME    = AJISAI (EGS)
OBJECT_ID      = 1986-061A
CENTER_NAME    = EARTH
REF_FRAME      = TEME
TIME_SYSTEM    = UTC
MEAN_ELEMENT_THEORY = SGP/SGP4

EPOCH          = 2026-02-20T18:42:09.057600
MEAN_MOTION    = 12.44515370
ECCENTRICITY   = .0011233
INCLINATION    = 50.0085
RA_OF_ASC_NODE = 145.3477
ARG_OF_PERICENTER = 243.4272
MEAN_ANOMALY   = 224.2011

EPHEMERIS_TYPE = 0
CLASSIFICATION_TYPE = U
NORAD_CAT_ID   = 16908
ELEMENT_SET_NO = 999
REV_AT_EPOCH   = 46589
BSTAR          = .13185E-3
MEAN_MOTION_DOT = -.79E-6
MEAN_MOTION_DDOT = 0

CCSDS_OMM_VERS = 2.0
CREATION_DATE  = 
ORIGINATOR     = 

OBJECT_NAME    = COSMOS 1812
OBJECT_ID      = 1987-003A
CENTER_NAME    = EARTH
REF_FRAME      = TEME
TIME_SYSTEM    = UTC
MEAN_ELEMENT_THEORY = SGP/SGP4

EPOCH          = 2026-02-20T16:35:24.038016
MEAN_MOTION    = 16.03909204
ECCENTRICITY   = .0004156
INCLINATION    = 82.4738
RA_OF_ASC_NODE = 215.0451
ARG_OF_PERICENTER = 295.2232
MEAN_ANOMALY   = 64.8617

EPHEMERIS_TYPE = 0
CLASSIFICATION_TYPE = U
NORAD_CAT_ID   = 17295
ELEMENT_SET_NO = 999
REV_AT_EPOCH   = 14174
BSTAR          = .70751E-3
MEAN_MOTION_DOT = .449969E-2
MEAN_MOTION_DDOT = .90633E-4

CCSDS_OMM_VERS = 2.0
CREATION_DATE  = 
ORIGINATOR     = 

OBJECT_NAME    = SL-14 R/B
OBJECT_ID      = 1987-024B
CENTER_NAME    = EARTH
REF_FRAME      = TEME
TIME_SYSTEM    = UTC
MEAN_ELEMENT_THEORY = SGP/SGP4

EPOCH          = 2026-02-20T16:06:42.912000
MEAN_MOTION    = 14.86114889
ECCENTRICITY   = .0017187
INCLINATION    = 82.5271
RA_OF_ASC_NODE = 108.7612
ARG_OF_PERICENTER = 320.9322
MEAN_ANOMALY   = 39.0652

EPHEMERIS_TYPE = 0
CLASSIFICATION_TYPE = U
NORAD_CAT_ID   = 17567
ELEMENT_SET_NO = 999
REV_AT_EPOCH   = 8560
BSTAR          = .41509E-4
MEAN_MOTION_DOT = .389E-5
MEAN_MOTION_DDOT = 0

CCSDS_OMM_VERS = 2.0
CREATION_DATE  = 
ORIGINATOR     = 

OBJECT_NAME    = COSMOS 1833
OBJECT_ID      = 1987-027A
CENTER_NAME    = EARTH
REF_FRAME      = TEME
TIME_SYSTEM    = UTC
MEAN_ELEMENT_THEORY = SGP/SGP4

EPOCH          = 2026-02-20T07:18:26.107776
MEAN_MOTION    = 14.13057274
ECCENTRICITY   = .0024838
INCLINATION    = 70.9232
RA_OF_ASC_NODE = 2.5543
ARG_OF_PERICENTER = 238.3110
MEAN_ANOMALY   = 121.5589

EPHEMERIS_TYPE = 0
CLASSIFICATION_TYPE = U
NORAD_CAT_ID   = 17589
ELEMENT_SET_NO = 999
REV_AT_EPOCH   = 786
BSTAR          = -.11495E-4
MEAN_MOTION_DOT = -.7E-6
MEAN_MOTION_DDOT = 0

CCSDS_OMM_VERS = 2.0
CREATION_DATE  = 
ORIGINATOR     = 

OBJECT_NAME    = SL-16 R/B
OBJECT_ID      = 1987-027B
CENTER_NAME    = EARTH
REF_FRAME      = TEME
TIME_SYSTEM    = UTC
MEAN_ELEMENT_THEORY = SGP/SGP4

EPOCH          = 2026-02-20T04:29:46.158720
MEAN_MOTION    = 14.17164980
ECCENTRICITY   = .0004371
INCLINATION    = 71.0039
RA_OF_ASC_NODE = 313.3775
ARG_OF_PERICENTER = 174.5891
MEAN_ANOMALY   = 185.5281

EPHEMERIS_TYPE = 0
CLASSIFICATION_TYPE = U
NORAD_CAT_ID   = 17590
ELEMENT_SET_NO = 999
REV_AT_EPOCH   = 1286
BSTAR          = .1555E-3
MEAN_MOTION_DOT = .266E-5
MEAN_MOTION_DDOT = 0

CCSDS_OMM_VERS = 2.0
CREATION_DATE  = 
ORIGINATOR     = 

OBJECT_NAME    = SL-14 R/B
OBJECT_ID      = 1987-038B
CENTER_NAME    = EARTH
REF_FRAME      = TEME
TIME_SYSTEM    = UTC
MEAN_ELEMENT_THEORY = SGP/SGP4

EPOCH          = 2026-02-20T17:23:51.284832
MEAN_MOTION    = 14.85352355
ECCENTRICITY   = .0018217
INCLINATION    = 82.5031
RA_OF_ASC_NODE = 312.7872
ARG_OF_PERICENTER = 217.2691
MEAN_ANOMALY   = 142.7262

EPHEMERIS_TYPE = 0
CLASSIFICATION_TYPE = U
NORAD_CAT_ID   = 17912
ELEMENT_SET_NO = 999
REV_AT_EPOCH   = 7671
BSTAR          = .44655E-4
MEAN_MOTION_DOT = .409E-5
MEAN_MOTION_DDOT = 0

CCSDS_OMM_VERS = 2.0
CREATION_DATE  = 
ORIGINATOR     = 

OBJECT_NAME    = COSMOS 1844
OBJECT_ID      = 1987-041A
CENTER_NAME    = EARTH
REF_FRAME      = TEME
TIME_SYSTEM    = UTC
MEAN_ELEMENT_THEORY = SGP/SGP4

EPOCH          = 2026-02-20T11:59:17.748672
MEAN_MOTION    = 14.14550801
ECCENTRICITY   = .0029147
INCLINATION    = 70.8983
RA_OF_ASC_NODE = 70.4349
ARG_OF_PERICENTER = 45.0388
MEAN_ANOMALY   = 315.3089

EPHEMERIS_TYPE = 0
CLASSIFICATION_TYPE = U
NORAD_CAT_ID   = 17973
ELEMENT_SET_NO = 999
REV_AT_EPOCH   = 115
BSTAR          = .13026E-3
MEAN_MOTION_DOT = .203E-5
MEAN_MOTION_DDOT = 0

CCSDS_OMM_VERS = 2.0
CREATION_DATE  = 
ORIGINATOR     = 

OBJECT_NAME    = SL-14 R/B
OBJECT_ID      = 1987-055B
CENTER_NAME    = EARTH
REF_FRAME      = TEME
TIME_SYSTEM    = UTC
MEAN_ELEMENT_THEORY = SGP/SGP4

EPOCH          = 2026-02-20T08:49:59.811168
MEAN_MOTION    = 14.85605913
ECCENTRICITY   = .0022242
INCLINATION    = 82.5015
RA_OF_ASC_NODE = 5.3523
ARG_OF_PERICENTER = 72.0678
MEAN_ANOMALY   = 288.2961

EPHEMERIS_TYPE = 0
CLASSIFICATION_TYPE = U
NORAD_CAT_ID   = 18153
ELEMENT_SET_NO = 999
REV_AT_EPOCH   = 6736
BSTAR          = .53903E-4
MEAN_MOTION_DOT = .493E-5
MEAN_MOTION_DDOT = 0

CCSDS_OMM_VERS = 2.0
CREATION_DATE  = 
ORIGINATOR     = 

OBJECT_NAME    = COSMOS 1867
OBJECT_ID      = 1987-060A
CENTER_NAME    = EARTH
REF_FRAME      = TEME
TIME_SYSTEM    = UTC
MEAN_ELEMENT_THEORY = SGP/SGP4

EPOCH          = 2026-02-20T06:07:38.779680
MEAN_MOTION    = 14.31500045
ECCENTRICITY   = .0014246
INCLINATION    = 65.0125
RA_OF_ASC_NODE = 355.5276
ARG_OF_PERICENTER = 277.6223
MEAN_ANOMALY   = 82.3243

EPHEMERIS_TYPE = 0
CLASSIFICATION_TYPE = U
NORAD_CAT_ID   = 18187
ELEMENT_SET_NO = 999
REV_AT_EPOCH   = 1744
BSTAR          = .28121E-4
MEAN_MOTION_DOT = -.25E-6
MEAN_MOTION_DDOT = 0

CCSDS_OMM_VERS = 2.0
CREATION_DATE  = 
ORIGINATOR     = 

OBJECT_NAME    = SL-14 R/B
OBJECT_ID      = 1988-001B
CENTER_NAME    = EARTH
REF_FRAME      = TEME
TIME_SYSTEM    = UTC
MEAN_ELEMENT_THEORY = SGP/SGP4

EPOCH          = 2026-02-20T10:18:28.406016
MEAN_MOTION    = 14.85504490
ECCENTRICITY   = .0016744
INCLINATION    = 82.5118
RA_OF_ASC_NODE = 211.5923
ARG_OF_PERICENTER = 297.7885
MEAN_ANOMALY   = 62.1633

EPHEMERIS_TYPE = 0
CLASSIFICATION_TYPE = U
NORAD_CAT_ID   = 18749
ELEMENT_SET_NO = 999
REV_AT_EPOCH   = 3946
BSTAR          = .49745E-4
MEAN_MOTION_DOT = .454E-5
MEAN_MOTION_DDOT = 0

